     2.100          NAVIGATION                              RINEX VERSION / TYPE
fic2rin                                 09/16/2015 00:06:09 PGM / RUN BY / DATE
                                                            END OF HEADER
 3 15  9 15 16  0  0.0  .209799036384D-04  .682121026330D-12  .000000000000D+00
     .750000000000D+02  .662500000000D+01  .428982154543D-08 -.304048097564D+01
     .223517417908D-06  .582952518016D-03  .121183693409D-04  .515361248207D+04
     .230400000000D+06 -.149011611938D-07 -.289083219497D+01 -.558793544769D-08
     .959746962639D+00  .141281250000D+03 -.260746715300D+01 -.785711299458D-08
    -.230723896291D-09  .100000000000D+01  .186200000000D+04  .000000000000D+00
     .240000000000D+01  .000000000000D+00  .186264514923D-08  .750000000000D+02
     .223206000000D+06  .400000000000D+01
 4 15  9 15 16  0  0.0 -.209547579288D-04 -.420641299570D-11  .000000000000D+00
     .950000000000D+02 -.539062500000D+02  .549094300553D-08  .103243841842D+01
    -.276975333691D-05  .118741242914D-01  .552460551262D-05  .515364933586D+04
     .230400000000D+06 -.193715095520D-06  .232705255494D+01  .119209289551D-06
     .940577110881D+00  .265312500000D+03  .109848165322D+01 -.878679457669D-08
    -.467519474063D-09  .100000000000D+01  .186200000000D+04  .000000000000D+00
     .240000000000D+01  .000000000000D+00 -.651925802231D-08  .950000000000D+02
     .223206000000D+06  .400000000000D+01
 5 15  9 15 16  0  0.0 -.195202883333D-03  .409272615798D-11  .000000000000D+00
     .480000000000D+02 -.768750000000D+01  .454590364085D-08 -.201247649076D+01
    -.387430191040D-06  .438124372158D-02  .119376927614D-04  .515364887047D+04
     .230400000000D+06 -.316649675369D-07 -.289933295299D+01 -.372529029846D-07
     .946923066644D+00  .142750000000D+03  .412938804947D+00 -.794033074665D-08
    -.128576784311D-09  .100000000000D+01  .186200000000D+04  .000000000000D+00
     .240000000000D+01  .000000000000D+00 -.107102096081D-07  .480000000000D+02
     .223206000000D+06  .400000000000D+01
 6 15  9 15 16  0  0.0  .585811212659D-04  .738964445191D-11  .000000000000D+00
     .370000000000D+02 -.532812500000D+02  .484055877156D-08 -.265351902270D+01
    -.282190740108D-05  .148735474795D-03  .519864261150D-05  .515353772736D+04
     .230400000000D+06 -.130385160446D-07  .234342785427D+01  .558793544769D-08
     .962703738052D+00  .279718750000D+03  .273608243547D+01 -.828677374882D-08
    -.421803284086D-09  .100000000000D+01  .186200000000D+04  .000000000000D+00
     .240000000000D+01  .000000000000D+00  .419095158577D-08  .370000000000D+02
     .223206000000D+06  .400000000000D+01
 7 15  9 15 16  0  0.0  .484740361571D-03 -.568434188608D-12  .000000000000D+00
     .520000000000D+02 -.586875000000D+02  .454518932538D-08  .595827795168D+00
    -.297836959362D-05  .895610568114D-02  .483915209770D-05  .515369254494D+04
     .230400000000D+06 -.558793544769D-08 -.771402984968D+00  .251457095146D-06
     .969040734905D+00  .291000000000D+03 -.270533646613D+01 -.829248827256D-08
    -.327870799992D-09  .100000000000D+01  .186200000000D+04  .000000000000D+00
     .240000000000D+01  .000000000000D+00 -.111758708954D-07  .520000000000D+02
     .223206000000D+06  .400000000000D+01
 8 15  9 15 16  0  0.0 -.535231083632D-05 -.125055521494D-11  .000000000000D+00
     .160000000000D+02  .606250000000D+02  .493091967831D-08 -.138143243921D+01
     .327453017235D-05  .136902928352D-02  .610016286373D-05  .515356885147D+04
     .230400000000D+06  .111758708954D-07  .129338226149D+01  .428408384323D-07
     .960149990718D+00  .262125000000D+03 -.179578013960D+01 -.828677374882D-08
     .501449458811D-09  .100000000000D+01  .186200000000D+04  .000000000000D+00
     .240000000000D+01  .000000000000D+00  .745058059692D-08  .160000000000D+02
     .223206000000D+06  .400000000000D+01
 9 15  9 15 16  0  0.0 -.924896448851D-05  .170530256582D-11  .000000000000D+00
     .200000000000D+02  .785937500000D+02  .471912514193D-08  .258253348447D+01
     .411272048950D-05  .359345576726D-03  .594370067120D-05  .515373323631D+04
     .230400000000D+06  .149011611938D-07 -.184890171159D+01 -.838190317154D-07
     .956377553627D+00  .264906250000D+03  .270452065085D+01 -.826927301984D-08
     .315727437029D-09  .100000000000D+01  .186200000000D+04  .000000000000D+00
     .240000000000D+01  .000000000000D+00  .931322574615D-09  .200000000000D+02
     .223206000000D+06  .400000000000D+01
11 15  9 15 16  0  0.0 -.604366417974D-03 -.227373675443D-11  .000000000000D+00
     .560000000000D+02 -.194375000000D+02  .684457081813D-08  .661751116042D+00
    -.962987542152D-06  .162653876469D-01  .348128378391D-05  .515361874199D+04
     .230400000000D+06 -.225380063057D-06  .199307159342D+01 -.130385160446D-07
     .893899842242D+00  .281125000000D+03  .145363942480D+01 -.961540052003D-08
    -.188222125921D-09  .100000000000D+01  .186200000000D+04  .000000000000D+00
     .240000000000D+01  .000000000000D+00 -.121071934700D-07  .560000000000D+02
     .223206000000D+06  .400000000000D+01
12 15  9 15 16  0  0.0  .328357331455D-03  .341060513165D-11  .000000000000D+00
     .170000000000D+02 -.133125000000D+02  .369801117987D-08  .100102371266D+00
    -.666826963425D-06  .550435844343D-02  .120177865028D-04  .515361385536D+04
     .230400000000D+06  .465661287308D-07  .298934109588D+00  .100582838058D-06
     .990367071278D+00  .170312500000D+03  .647886397720D+00 -.760317384557D-08
     .124290891500D-09  .100000000000D+01  .186200000000D+04  .000000000000D+00
     .240000000000D+01  .000000000000D+00 -.125728547573D-07  .170000000000D+02
     .223206000000D+06  .400000000000D+01
13 15  9 15 16  0  0.0 -.149347819388D-03 -.295585778076D-11  .000000000000D+00
     .740000000000D+02  .652187500000D+02  .439161149968D-08  .143192085375D+01
     .336579978466D-05  .470457249321D-02  .521354377270D-05  .515368140411D+04
     .230400000000D+06  .119209289551D-06 -.173201350815D+01 -.596046447754D-07
     .972926951913D+00  .284187500000D+03  .207699290723D+01 -.815141096756D-08
     .348228790841D-09  .100000000000D+01  .186200000000D+04  .000000000000D+00
     .240000000000D+01  .000000000000D+00 -.111758708954D-07  .740000000000D+02
     .223206000000D+06  .400000000000D+01
14 15  9 15 16  0  0.0  .345502048731D-04 -.261479726760D-11  .000000000000D+00
     .440000000000D+02  .701250000000D+02  .445375694543D-08 -.292228733871D+01
     .375322997570D-05  .846852187533D-02  .471994280815D-05  .515365210533D+04
     .230400000000D+06  .484287738800D-07 -.176738936158D+01 -.260770320892D-07
     .965438208434D+00  .290218750000D+03 -.195608828707D+01 -.804069206996D-08
     .345371528968D-09  .100000000000D+01  .186200000000D+04  .000000000000D+00
     .240000000000D+01  .000000000000D+00 -.931322574615D-08  .440000000000D+02
     .223206000000D+06  .400000000000D+01
15 15  9 15 16  0  0.0 -.271731056273D-03 -.204636307899D-11  .000000000000D+00
     .126000000000D+03  .825625000000D+02  .522200323168D-08  .268369929917D+01
     .422634184361D-05  .743239547592D-02  .598654150963D-05  .515371554184D+04
     .230400000000D+06 -.931322574615D-07 -.189526143338D+01 -.856816768646D-07
     .932238357870D+00  .249937500000D+03  .402019871136D+00 -.846106672311D-08
     .354300472323D-09  .100000000000D+01  .186200000000D+04  .000000000000D+00
     .240000000000D+01  .000000000000D+00 -.107102096081D-07  .126000000000D+03
     .223206000000D+06  .400000000000D+01
16 15  9 15 16  0  0.0 -.862930901349D-04  .397903932026D-11  .000000000000D+00
     .810000000000D+02 -.378125000000D+01  .357872049664D-08 -.191222306882D+01
    -.558793544769D-06  .809092225973D-02  .124014914036D-04  .515362774467D+04
     .230400000000D+06  .316649675369D-07  .317631266183D+00 -.117346644402D-06
     .990895512398D+00  .154906250000D+03  .321932273131D+00 -.747388274579D-08
     .223937899341D-09  .100000000000D+01  .186200000000D+04  .000000000000D+00
     .240000000000D+01  .000000000000D+00 -.102445483208D-07  .810000000000D+02
     .223206000000D+06  .400000000000D+01
17 15  9 15 16  0  0.0 -.187782570720D-03 -.125055521494D-11  .000000000000D+00
     .690000000000D+02  .523437500000D+02  .456983320904D-08 -.289870229486D+01
     .271014869213D-05  .103796113981D-01  .604987144470D-05  .515356517601D+04
     .230400000000D+06  .210478901863D-06  .134249114867D+01 -.165775418282D-06
     .973289878482D+00  .267218750000D+03 -.200860975251D+01 -.799176146037D-08
     .468948104999D-09  .100000000000D+01  .186200000000D+04  .000000000000D+00
     .240000000000D+01  .000000000000D+00 -.107102096081D-07  .690000000000D+02
     .223206000000D+06  .400000000000D+01
18 15  9 15 16  0  0.0  .434286426753D-03  .329691829393D-11  .000000000000D+00
     .640000000000D+02  .456250000000D+01  .505306762341D-08 -.134513286127D+01
     .253319740295D-06  .163596589118D-01  .112559646368D-04  .515363888168D+04
     .230400000000D+06  .244006514549D-06 -.291488780983D+01  .415369868279D-06
     .925518756737D+00  .145406250000D+03 -.193668542757D+01 -.825570102594D-08
    -.262510934634D-09  .100000000000D+01  .186200000000D+04  .000000000000D+00
     .240000000000D+01  .000000000000D+00 -.111758708954D-07  .640000000000D+02
     .223206000000D+06  .400000000000D+01
20 15  9 15 16  0  0.0  .355504453182D-03  .306954461848D-11  .000000000000D+00
     .160000000000D+02 -.182812500000D+02  .506699677504D-08  .274360147452D+01
    -.966712832451D-06  .488304195460D-02  .114422291517D-04  .515364937019D+04
     .230400000000D+06  .353902578354D-07 -.296703828364D+01 -.447034835815D-07
     .926741943505D+00  .139375000000D+03  .121864396681D+01 -.817569769348D-08
    -.249653256203D-09  .100000000000D+01  .186200000000D+04  .000000000000D+00
     .240000000000D+01  .000000000000D+00 -.838190317154D-08  .160000000000D+02
     .223206000000D+06  .400000000000D+01
